O3B FM5                 
1 39188U 13031A   22290.61033183 -.00000026  00000+0  00000+0 0  9994
2 39188   0.0647  16.0759 0002681 195.0492 148.8644  5.00115374170079
O3B FM4                 
1 39189U 13031B   22291.46588912 -.00000025  00000+0  00000+0 0  9993
2 39189   0.0494 352.3176 0002628 219.1117 148.5605  5.00115887170222
O3B FM2                 
1 39190U 13031C   22290.75775009 -.00000026  00000+0  00000+0 0  9992
2 39190   0.0490 346.3828 0002646 223.1017 150.5060  5.00115174170149
O3B PFM                 
1 39191U 13031D   22290.78404740 -.00000026  00000+0  00000+0 0  9997
2 39191   0.0577  10.7551 0002674 196.1920 153.0444  5.00115781169702
O3B FM3                 
1 40079U 14038A   22289.43960242 -.00000027  00000+0  00000+0 0  9997
2 40079   0.0533 359.8746 0004800 187.5686 172.5549  5.00115372146028
O3B FM7                 
1 40080U 14038B   22290.78490581 -.00000026  00000+0  00000+0 0  9992
2 40080   0.0549 355.5104 0002055 256.2315 108.2411  5.00115547150912
O3B FM6                 
1 40081U 14038C   22290.61139782 -.00000026  00000+0  00000+0 0  9998
2 40081   0.0522 359.6123 0002733 207.6887 152.6900  5.00115375150866
O3B FM8                 
1 40082U 14038D   22291.06508626 -.00000025  00000+0  00000+0 0  9995
2 40082   0.0499 357.0607 0002648 207.8714 155.0606  5.00115731151187
O3B FM10                
1 40348U 14083A   22290.49150258 -.00000026  00000+0  00000+0 0  9991
2 40348   0.0527   9.4388 0002649 196.6783 153.8748  5.00115191142925
O3B FM11                
1 40349U 14083B   22290.70483402 -.00000026  00000+0  00000+0 0  9996
2 40349   0.0571   7.5040 0002656 215.1401 137.3406  5.00115439143105
O3B FM12                
1 40350U 14083C   22290.53215929 -.00000026  00000+0  00000+0 0  9996
2 40350   0.0562   7.0522 0002808 202.4488 150.4885  5.00115305142951
O3B FM9                 
1 40351U 14083D   22290.55899921 -.00000026  00000+0  00000+0 0  9999
2 40351   0.0582   7.4167 0002634 200.4467 152.1278  5.00116180143098
DIAMOND RED             
1 42783U 17036U   22291.07999242  .00010136  00000+0  35552-3 0  9992
2 42783  97.1875 327.7256 0008254 248.9071 111.1288 15.29594086295675
DIAMOND GREEN           
1 42785U 17036W   22291.08057244  .00010817  00000+0  37891-3 0  9996
2 42785  97.1878 327.7904 0008046 250.0914 109.9460 15.29620898295666
DIAMOND BLUE            
1 42786U 17036X   22291.34142179  .00010769  00000+0  37723-3 0  9998
2 42786  97.1879 328.0346 0008097 249.8550 110.1820 15.29621529295701
LEO VANTAGE 1           
1 43113U 18004C   22290.76988091  .00004752  00000+0  38137-3 0  9990
2 43113  99.2423  23.8764 0399778 183.6605 176.1644 14.54362195242013
O3B FM15                
1 43231U 18024A   22290.42505156 -.00000026  00000+0  00000+0 0  9998
2 43231   0.0497  11.5308 0002979 197.2359 151.2222  5.00116089 84058
O3B FM16                
1 43232U 18024B   22290.67833962 -.00000026  00000+0  00000+0 0  9995
2 43232   0.0469  15.1351 0002964 194.3937 150.4598  5.00115928 83989
O3B FM14                
1 43233U 18024C   22290.51812105 -.00000026  00000+0  00000+0 0  9995
2 43233   0.0455  15.9870 0002824 195.8849 148.1163  5.00115361 83985
O3B FM13                
1 43234U 18024D   22290.37175304 -.00000026  00000+0  00000+0 0  9993
2 43234   0.0593  21.5857 0003773 190.2768 148.1201  5.00115200 84098
O3B FM20                
1 44112U 19020A   22290.74471290 -.00000026  00000+0  00000+0 0  9990
2 44112   0.0522   8.9073 0003181 205.9744 145.1028  5.00115506 64615
O3B FM19                
1 44113U 19020B   22291.37120831 -.00000025  00000+0  00000+0 0  9992
2 44113   0.0736  17.6997 0001849 217.7308 124.5576  5.00115156 64712
O3B FM17                
1 44114U 19020C   22290.25234353 -.00000026  00000+0  00000+0 0  9995
2 44114   0.0342 358.5863 0003100 210.1386 151.2633  5.00115619 64546
O3B FM18                
1 44115U 19020D   22290.59863198 -.00000026  00000+0  00000+0 0  9998
2 44115   0.0526   9.0691 0002905 197.6884 153.2329  5.00115809 64682
SALSAT                  
1 46495U 20068K   22290.78582273  .00004001  00000+0  28502-3 0  9995
2 46495  97.7395 232.2141 0015303 218.7012 141.3118 15.05091063112584
